IRIDIUM 155             
1 43573U 18061E   25164.66354786  .00000123  00000+0  36920-4 0  9990
2 43573  86.3987 210.6431 0002616  90.0384 270.1111 14.34218387360543
IRIDIUM 154             
1 43574U 18061F   25164.85382525  .00000063  00000+0  15452-4 0  9994
2 43574  86.3992 210.6789 0002354  91.8254 268.3211 14.34218115360617
IRIDIUM 163             
1 43575U 18061G   25164.55572277  .00000304  00000+0  10154-3 0  9998
2 43575  86.3988 210.7305 0002436  96.2853 263.8620 14.34219318360545
IRIDIUM 156             
1 43576U 18061H   25164.60012257  .00000129  00000+0  38953-4 0  9995
2 43576  86.3988 210.7186 0002597  86.8533 273.2960 14.34217921360541
IRIDIUM 164             
1 43577U 18061J   25164.58109006  .00000224  00000+0  72750-4 0  9991
2 43577  86.4004 210.7601 0002295  94.1227 266.0231 14.34215701360580
IRIDIUM 159             
1 43578U 18061K   25164.61914887  .00000266  00000+0  87986-4 0  9990
2 43578  86.3990 210.6897 0002164  96.7410 263.4033 14.34217917360556
IRIDIUM 180             
1 43922U 19002A   25164.47910807  .00000026  00000+0  22935-5 0  9999
2 43922  86.3979 147.7295 0002339  89.8412 270.3052 14.34217841336149
IRIDIUM 176             
1 43923U 19002B   25164.70604921  .00002014  00000+0  31535-3 0  9996
2 43923  86.6102 147.6285 0003040  93.3874 266.7691 14.72260397345033
IRIDIUM 168             
1 43924U 19002C   25164.47276493  .00000088  00000+0  24361-4 0  9999
2 43924  86.3980 147.7990 0002329  89.1331 271.0131 14.34217843336123
IRIDIUM 173             
1 43925U 19002D   25164.46008081  .00000010  00000+0 -35442-5 0  9994
2 43925  86.3979 147.7086 0002447  90.2609 269.8868 14.34217624336107
IRIDIUM 169             
1 43926U 19002E   25164.74577465  .00000212  00000+0  62697-4 0  9997
2 43926  86.4248 179.1693 0003832  89.1310 271.0328 14.38607216337253
IRIDIUM 172             
1 43927U 19002F   25164.66304189  .00000094  00000+0  26386-4 0  9993
2 43927  86.3979 147.6307 0002223  94.8776 265.2673 14.34217270336146
IRIDIUM 175             
1 43928U 19002G   25164.83693556  .00000978  00000+0  15103-3 0  9997
2 43928  86.1498 100.2803 0002966  67.6987 292.4543 14.72255700345042
IRIDIUM 171             
1 43929U 19002H   25164.43470985  .00000031  00000+0  39740-5 0  9998
2 43929  86.3991 147.9913 0002101  78.0990 282.0441 14.34217070336109
IRIDIUM 170             
1 43930U 19002J   25164.44036201  .00000479  00000+0  72040-4 0  9995
2 43930  86.6108 147.7428 0002927  81.1050 279.0499 14.72253178345000
IRIDIUM 167             
1 43931U 19002K   25164.70744240 -.00000021  00000+0 -14396-4 0  9999
2 43931  86.3983 147.6313 0002436  77.4907 282.6562 14.34217208336143
IRIDIUM 181             
1 56726U 23068S   25164.62074287  .00000399  00000+0  11254-3 0  9995
2 56726  86.4529 210.7216 0001990  81.0259 279.1167 14.43311392109278
IRIDIUM 177             
1 56727U 23068T   25164.89381897  .00001402  00000+0  18109-3 0  9995
2 56727  86.1975 143.6914 0002567  83.0828 277.0685 14.80227291111882
IRIDIUM 174             
1 56728U 23068U   25164.42801598  .00001057  00000+0  16368-3 0  9991
2 56728  86.6114 147.8590 0002601 101.1076 259.0434 14.72255378111762
IRIDIUM 178             
1 56729U 23068V   25164.54491030  .00000546  00000+0  68449-4 0  9991
2 56729  86.6569 179.3526 0002539  94.8304 265.3207 14.80231554111833
IRIDIUM 179             
1 56730U 23068W   25164.53955258  .00001071  00000+0  13747-3 0  9993
2 56730  86.6811 187.2138 0002664  90.0744 270.0783 14.80234557111835
